#dP2021  6  7  0  0  0.00000000      96 __u+U ITR00 FIT  IAC
## 2161  86400.00000000   900.00000000 59372 0.0000000000000
+  125   C01C02C03C04C05C06C07C08C09C10C11C12C13C14C16C19C20
+        C21C22C23C24C25C26C27C28C29C30C32C33C34C35C36C37C38
+        C39C40C41C42C43C44C45C46C60E01E02E03E04E05E07E08E09
+        E11E12E13E14E15E18E19E21E24E25E26E27E30E31E33E36G01
+        G02G03G04G05G06G07G08G09G10G12G13G14G15G16G17G18G19
+        G20G21G22G23G24G25G26G27G28G29G30G31G32J01J02J03R01
+        R02R03R04R05R06R07R08R09R10R11R12R13R14R15R16R17R18
+        R19R20R21R22R23R24  0  0  0  0  0  0  0  0  0  0  0
++        13 13 13 13 13 10  9 10 10  9  9  9 10  9 10  8  8
++         8  8  8  8  8  8  8  8  8  8  8  8  8  8  8  8  9
++         9  9  8  8  8  8  8  9 13  4  5  4  4  4  4  5  4
++         4  5  4  4  4  4  5  4  4  4  4  5  5  4  5  5  4
++         4  4  4  4  4  4  4  4  4  4  3  4  4  4  4  3  4
++         4  4  4  4  4  4  4  4  4  4  4  4  4  8  8  8  8
++         6  6  6  6 13  6  6  6 13  9  6  7  5  5  7  6  6
++         8  8  6  8 13  6  0  0  0  0  0  0  0  0  0  0  0
%c M  cc GPS ccc cccc cccc cccc cccc ccccc ccccc ccccc ccccc
%c cc cc ccc ccc cccc cccc cccc cccc ccccc ccccc ccccc ccccc
%f  0.0000000  0.000000000  0.00000000000  0.000000000000000
%f  0.0000000  0.000000000  0.00000000000  0.000000000000000
%i    0    0    0    0      0      0      0      0         0
%i    0    0    0    0      0      0      0      0         0
/* INFORMATION & ANALYSIS CENTER (IAC)            RAPID DATA
/* S/V CLOCKS ARE ALIGNED TO GNSS TIME                      
/* G:C1WC2W R:C1PC2P E:C1XC5X C:C2IC6I J:C1CC2S             
/* PCV:IGS14_2148 OL/AL:FES2004  NONE     YN ORB:CoN CLK:CoN
*  2021 06 07 16 15  0.00000000
PC01 -34398.044965  24387.466030   -191.913396   -392.501751
PC02   4462.679717  41947.661107    922.602333    612.862755
PC03 -14840.475734  39505.709453    -96.452977   -216.226495
PC04 -39627.242459  14423.612116   -588.246975   -110.154802
PC05  21905.106137  36055.193006    840.039138   -100.725712
PC06  -9036.853543  24288.404980  33814.659039    475.486883
PC07 -24449.461241  28900.297989 -18855.213812     98.489663
PC08 -12436.754117  38247.019578 -11936.818065   -892.994457
PC09   5602.831756  31788.876198  27664.607605    465.706856
PC10  -8853.176079  29943.908513 -28317.288906    -32.747800
PC11   8048.763461  22236.163792 -14729.688774    386.114934
PC12  -8698.437651  12866.843687 -23155.746248    852.907181
PC13  -4873.178403  41747.248738    174.923118    290.990532
PC14  -1055.865958  16536.049423  22490.905628    926.069617
PC16  -5846.372123  25341.484425  33360.090205   -884.403507
PC19 -10135.708604 -13210.576004 -22366.948447    863.812054
PC20  10035.955051 -16971.106517 -19714.256978   -885.446514
PC21 -25272.379950  10722.503016   5113.933873   -936.453422
PC22 -25091.735247  -1713.657962 -12121.446597   -951.331129
PC23  15282.455919   5588.487635 -22662.974018   -928.527776
PC24  -8355.832189  26560.530719   1698.880755   -882.936345
PC25   5983.577249  22414.244587 -15499.853762   -904.684506
PC26 -15925.493189  15882.209116  16493.566971    896.016702
PC27  16425.174406  -4951.189558  21990.757554    544.466605
PC28  22580.910914  12267.660770  10871.916316    -65.125402
PC29 -16312.399280 -21654.186842   6596.995862    402.908516
PC30    480.169667 -18992.985971  20422.734052    469.827759
PC32  25186.980015 -10872.647361  -5050.312536   -926.567461
PC33  10087.308511  13255.274621  22396.432950   -936.602932
PC34    197.500337  19419.328031 -20061.783267   -655.746150
PC35 -23007.567259 -11710.793530 -10561.607211   -244.263243
PC36  -5222.982963 -22788.091199  15261.465572   -727.078674
PC37  16471.725845 -14696.140630 -17060.479100   -878.865038
PC38 -10690.024693  39811.000751  -8460.861693    153.757680
PC39  -2333.410919  26422.476697  32822.124183     31.614862
PC40 -17825.328051  25448.708910 -28548.251251    168.670037
PC41  24929.448386   1937.884211  12442.711585   -946.337601
PC42 -10833.001067  17017.829065  19337.983942   -913.453354
PC43  15819.045273  21889.238031  -7085.690588   -765.791547
PC44 -16444.414502   5468.060819 -21878.499475    227.618342
PC45 -15223.369083  -5396.012999  22764.526221    460.979016
PC46   7660.506273 -26841.963123   -709.386160    235.072781
PC60   7255.238166  41512.349357  -1621.829734     -0.082056
PE01 -21130.589258  20548.498222   2730.666088  -1124.316954
PE02  21082.150231 -20622.513174  -2604.775937    224.486804
PE03  19685.861574 -10060.310689 -19670.054909   -439.413923
PE04    990.568221  17497.635126  23865.692611   -787.469842
PE05  29146.310864   3412.521178  -3849.619699   -274.798877
PE07 -21523.863534 -14723.517251 -14003.831114   -547.074186
PE08  -1512.413358 -17390.759380 -23898.422948   5989.719290
PE09  21712.504315  14483.771489  13956.438397   5641.528249
PE11  14784.353199  23583.128272  10086.587775   5880.901164
PE12   2838.005860  27947.038230  -9370.738875   5171.789546
PE13 -14663.067581 -23794.674578  -9734.700274    417.438697
PE14  -4996.379089  19873.047752 -24290.851336  -1458.062663
PE15  -2981.504236 -27920.269247   9355.976487    810.079735
PE18  -8012.274259 -18255.118999  15213.299153  -1596.763531
PE19 -21532.177780   8589.461979  18417.337755    296.424813
PE21 -22203.812074   5801.517363  18696.025139   -669.346192
PE24   9802.571671  13707.551561 -24344.448601   -942.194171
PE25  22142.643168  -5609.186407 -18820.275774   -536.215589
PE26 -17699.404713  -4768.723935 -23243.398713   1720.317364
PE27 -10510.886264 -12952.357594  24456.028876    -49.241947
PE30   8234.681791 -24139.399879  15020.991602   2882.427045
PE31  -7281.561360  23952.540075 -15787.746016   -481.966659
PE33 -10422.813891  15610.248247 -22891.353524   -469.455035
PE36  17686.797824   5684.311035  23045.053628   -217.752417
PG01  13586.492803  -6730.999720  21497.409575    665.686468
PG02 -13362.698906 -17831.064334 -13761.328481   -610.548267
PG03  22853.771929 -11559.320705   6720.487250   -185.478714
PG04  21560.986332  -1955.707256 -15418.378872   -199.121646
PG05 -19828.020493    -92.588743 -17917.956773    -44.256355
PG06  -6618.132079 -25144.233580  -5216.620107     24.171563
PG07   7821.950706 -20482.633656 -14275.917876    172.117605
PG08  25331.492266   5052.567313   6824.654222    -24.193852
PG09  12363.791032 -11004.749744 -20836.112220   -349.905372
PG10  -4978.591703  19114.785626  17741.507424   -137.660341
PG12 -23558.435771   8970.619550   7887.598459    -51.778599
PG13 -23038.446816 -13365.302587    146.078515    141.891015
PG14   6034.605133 -19097.908467  17418.922451     73.438373
PG15 -25743.143799  -2401.157185   6465.196610   -144.008725
PG16  16499.730882   5966.578600 -20320.818438   -337.572773
PG17  -3162.252727 -16936.619851  20639.220163    454.776203
PG18  -5944.768195  22881.258929 -12047.749900    347.766390
PG19 -12271.465124 -18122.238789  14849.362165     10.302459
PG20 -19919.528018   2252.536801 -17269.096914    521.398310
PG21  16058.586699   1834.154683  21847.561396    123.473631
PG22  21335.748396  -4515.828243  15214.395167   -594.447494
PG23 -15068.837951  19952.421846   8862.090903     99.321069
PG24 -15647.737778   1435.504834  21181.107747    120.746190
PG25 -19529.926949  17566.468297  -3032.168945    151.618034
PG26   8280.139583  13387.247522 -21433.929901     95.400838
PG27  23284.070930  12649.725475  -3913.710138   -143.285660
PG28    229.894370 -16990.335728  21010.835320    558.526056
PG29 -13518.186119   8891.401300 -21123.308916   -360.252399
PG30   -487.221861 -26257.261831  -2926.589536   -436.071424
PG31   8240.955920  23628.898347  -8259.063959   -121.738714
PG32   6805.479640  17358.023817  19094.953917     19.254665
PJ01 -31391.291663  23583.377231  20472.882262   -391.689119
PJ02 -33577.571056  25257.765059   9022.267895     -0.160364
PJ03 -21959.671565  19746.018158 -25498.513595     -7.445756
PR01   3991.922337  10650.709161  22837.035802     80.547171
PR02  22410.495957   3776.832855  11687.455595    481.523331
PR03  24458.284091  -4725.804264  -5559.283873     37.288221
PR04  12732.524571 -10252.710906 -19550.284736     90.256673
PR05  -6015.371244 -10147.853263 -22597.585944     73.147110
PR06 -22964.822726  -2734.598651 -10743.661004    199.316287
PR07 -24166.585872   5058.644802   6364.605135    -42.384193
PR08 -12584.030371  10423.667289  19640.091381    -59.401400
PR09 -10106.762425  -4995.995752  22898.176739     -3.242832
PR10 -14430.485227  11809.486838  17365.329981    -71.552332
PR11 -10959.547118  23011.527030   1211.212525    -10.053096
PR12   -943.799956  19952.405262 -15827.276790    235.273623
PR13   9489.578356   5662.035893 -23004.280597    -55.911212
PR14  14658.050999 -12704.816975 -16541.753668     65.095095
PR15  11054.868938 -22977.120652   -628.352969    103.393177
PR16   -254.315830 -19493.270438  16502.608416    -16.059216
PR17  12683.562733    692.889288  22115.177677    430.660913
PR18   1807.524987 -14188.676500  21113.381994     79.238057
PR19  -9000.730472 -21836.902415   9629.544663   -146.827547
PR20 -16210.074155 -16742.060934 -10321.451581    -50.475718
PR21 -12031.530230    352.489545 -22499.825400   -214.799680
PR22   -995.664311  15022.688556 -20641.611679   -116.525717
PR23  13077.520111  21712.679118  -2896.068286     -7.315479
PR24  16714.903288  15899.295477  10883.486525     45.628312
EOF
